[{"OBJECT_NAME":"STARLINK-5472","OBJECT_ID":"2022-175K","EPOCH":"2026-03-09T07:38:49.067808","MEAN_MOTION":15.08835972,"ECCENTRICITY":0.00012519,"INCLINATION":53.2179,"RA_OF_ASC_NODE":45.7383,"ARG_OF_PERICENTER":111.2667,"MEAN_ANOMALY":248.8459,"EPHEMERIS_TYPE":0,"CLASSIFICATION_TYPE":"U","NORAD_CAT_ID":54767,"ELEMENT_SET_NO":999,"REV_AT_EPOCH":17986,"BSTAR":-3.9589506e-5,"MEAN_MOTION_DOT":-9.18e-6,"MEAN_MOTION_DDOT":0},{"OBJECT_NAME":"CZ-4C DEB","OBJECT_ID":"2010-038E","EPOCH":"2026-03-08T13:52:01.201152","MEAN_MOTION":14.99820212,"ECCENTRICITY":0.00772359,"INCLINATION":97.9453,"RA_OF_ASC_NODE":199.3713,"ARG_OF_PERICENTER":309.8702,"MEAN_ANOMALY":49.5744,"EPHEMERIS_TYPE":0,"CLASSIFICATION_TYPE":"U","NORAD_CAT_ID":37569,"ELEMENT_SET_NO":999,"REV_AT_EPOCH":82446,"BSTAR":0.0019249603,"MEAN_MOTION_DOT":0.00025376,"MEAN_MOTION_DDOT":0}]
